start=new Date('2021-11-17T00:00:00.000Z').valueOf();
sats=[{"EPOCH":"2021-11-16T10:46:36.369984","TIME_SYSTEM":"UTC","CENTER_NAME":"EARTH","MEAN_ELEMENT_THEORY":"SGP4","PERIOD":"95.592","NORAD_CAT_ID":"48679","ARG_OF_PERICENTER":"57.8919","OBJECT_TYPE":"PAYLOAD","COUNTRY_CODE":"US","REV_AT_EPOCH":"2657","MEAN_ANOMALY":"302.2216","FILE":"3216827","REF_FRAME":"TEME","BSTAR":"0.00000426980000","MEAN_MOTION_DOT":"-0.00000218","TLE_LINE2":"2 48679  53.0573 338.6532 0001497  57.8919 302.2216 15.06397972 26574","APOAPSIS":"548.256","INCLINATION":"53.0573","SEMIMAJOR_AXIS":"6925.355","CLASSIFICATION_TYPE":"U","MEAN_MOTION_DDOT":"0.0000000000000","PERIAPSIS":"546.183","OBJECT_NAME":"STARLINK-2648","SITE":"AFETR","RA_OF_ASC_NODE":"338.6532","GP_ID":"189883091","ELEMENT_SET_NO":"999","MEAN_MOTION":"15.06397972","DECAY_DATE":null,"EPHEMERIS_TYPE":"0","TLE_LINE1":"1 48679U 21044AT  21320.44903206 -.00000218  00000-0  42698-5 0  9997","RCS_SIZE":"LARGE","ECCENTRICITY":"0.00014970","OBJECT_ID":"2021-044AT","LAUNCH_DATE":"2021-05-26"},{"ECCENTRICITY":"0.00013090","RCS_SIZE":"LARGE","LAUNCH_DATE":"2021-05-26","OBJECT_ID":"2021-044AU","EPHEMERIS_TYPE":"0","TLE_LINE1":"1 48680U 21044AU  21320.44537139  .00001792  00000-0  13919-3 0  9996","MEAN_MOTION":"15.06393639","DECAY_DATE":null,"OBJECT_NAME":"STARLINK-2649","MEAN_MOTION_DDOT":"0.0000000000000","PERIAPSIS":"546.327","ELEMENT_SET_NO":"999","GP_ID":"189882851","RA_OF_ASC_NODE":"338.6634","SITE":"AFETR","TLE_LINE2":"2 48680  53.0564 338.6634 0001309  65.7425 294.3700 15.06393639 26576","MEAN_MOTION_DOT":"0.00001792","REF_FRAME":"TEME","BSTAR":"0.00013919000000","FILE":"3216827","MEAN_ANOMALY":"294.3700","CLASSIFICATION_TYPE":"U","SEMIMAJOR_AXIS":"6925.368","INCLINATION":"53.0564","APOAPSIS":"548.140","NORAD_CAT_ID":"48680","PERIOD":"95.593","REV_AT_EPOCH":"2657","COUNTRY_CODE":"US","OBJECT_TYPE":"PAYLOAD","ARG_OF_PERICENTER":"65.7425","TIME_SYSTEM":"UTC","CENTER_NAME":"EARTH","EPOCH":"2021-11-16T10:41:20.088096","MEAN_ELEMENT_THEORY":"SGP4"},{"TLE_LINE1":"1 48681U 21044AV  21320.58334491 -.00043818  00000-0 -29403-2 0  9999","EPHEMERIS_TYPE":"0","DECAY_DATE":null,"MEAN_MOTION":"15.06405942","LAUNCH_DATE":"2021-05-26","OBJECT_ID":"2021-044AV","ECCENTRICITY":"0.00020730","RCS_SIZE":"LARGE","REV_AT_EPOCH":"358","COUNTRY_CODE":"US","OBJECT_TYPE":"PAYLOAD","ARG_OF_PERICENTER":"44.3129","NORAD_CAT_ID":"48681","PERIOD":"95.592","MEAN_ELEMENT_THEORY":"SGP4","CENTER_NAME":"EARTH","TIME_SYSTEM":"UTC","EPOCH":"2021-11-16T14:00:01.000224","GP_ID":"189883436","ELEMENT_SET_NO":"999","RA_OF_ASC_NODE":"308.1367","SITE":"AFETR","OBJECT_NAME":"STARLINK-2725","MEAN_MOTION_DDOT":"0.0000000000000","PERIAPSIS":"545.760","CLASSIFICATION_TYPE":"U","SEMIMAJOR_AXIS":"6925.330","APOAPSIS":"548.631","INCLINATION":"53.0355","TLE_LINE2":"2 48681  53.0355 308.1367 0002073  44.3129 114.7558 15.06405942  3586","MEAN_MOTION_DOT":"-0.00043818","BSTAR":"-0.00294030000000","REF_FRAME":"TEME","FILE":"3216827","MEAN_ANOMALY":"114.7558"},{"TLE_LINE1":"1 48682U 21044AW  21320.58334491 -.00074392  00000-0 -50229-2 0  9991","EPHEMERIS_TYPE":"0","DECAY_DATE":null,"MEAN_MOTION":"15.06434587","OBJECT_ID":"2021-044AW","LAUNCH_DATE":"2021-05-26","RCS_SIZE":"LARGE","ECCENTRICITY":"0.00019870","ARG_OF_PERICENTER":"47.1249","COUNTRY_CODE":"US","OBJECT_TYPE":"PAYLOAD","REV_AT_EPOCH":"358","PERIOD":"95.590","NORAD_CAT_ID":"48682","MEAN_ELEMENT_THEORY":"SGP4","EPOCH":"2021-11-16T14:00:01.000224","TIME_SYSTEM":"UTC","CENTER_NAME":"EARTH","SITE":"AFETR","RA_OF_ASC_NODE":"298.0558","ELEMENT_SET_NO":"999","GP_ID":"189883319","PERIAPSIS":"545.732","MEAN_MOTION_DDOT":"0.0000000000000","OBJECT_NAME":"STARLINK-2743","INCLINATION":"53.0506","APOAPSIS":"548.484","SEMIMAJOR_AXIS":"6925.243","CLASSIFICATION_TYPE":"U","FILE":"3216827","MEAN_ANOMALY":"86.9316","REF_FRAME":"TEME","BSTAR":"-0.00502290000000","MEAN_MOTION_DOT":"-0.00074392","TLE_LINE2":"2 48682  53.0506 298.0558 0001987  47.1249  86.9316 15.06434587  3580"},{"REV_AT_EPOCH":"358","COUNTRY_CODE":"US","OBJECT_TYPE":"PAYLOAD","ARG_OF_PERICENTER":"42.0203","NORAD_CAT_ID":"48683","PERIOD":"95.590","MEAN_ELEMENT_THEORY":"SGP4","TIME_SYSTEM":"UTC","CENTER_NAME":"EARTH","EPOCH":"2021-11-16T14:00:01.000224","ELEMENT_SET_NO":"999","GP_ID":"189882740","RA_OF_ASC_NODE":"298.0413","SITE":"AFETR","OBJECT_NAME":"STARLINK-2756","PERIAPSIS":"545.553","MEAN_MOTION_DDOT":"0.0000000000000","CLASSIFICATION_TYPE":"U","SEMIMAJOR_AXIS":"6925.267","INCLINATION":"53.0530","APOAPSIS":"548.711","TLE_LINE2":"2 48683  53.0530 298.0413 0002280  42.0203 252.0148 15.06426543  3581","MEAN_MOTION_DOT":"-0.00035398","REF_FRAME":"TEME","BSTAR":"-0.00236750000000","MEAN_ANOMALY":"252.0148","FILE":"3216827","TLE_LINE1":"1 48683U 21044AX  21320.58334491 -.00035398  00000-0 -23675-2 0  9990","EPHEMERIS_TYPE":"0","DECAY_DATE":null,"MEAN_MOTION":"15.06426543","LAUNCH_DATE":"2021-05-26","OBJECT_ID":"2021-044AX","ECCENTRICITY":"0.00022800","RCS_SIZE":"LARGE"},{"CLASSIFICATION_TYPE":"U","INCLINATION":"53.0565","APOAPSIS":"548.424","SEMIMAJOR_AXIS":"6925.371","MEAN_MOTION_DOT":"-0.00000940","TLE_LINE2":"2 48684  53.0565 314.5290 0001715  59.5862 300.5297 15.06392697 26898","FILE":"3216827","MEAN_ANOMALY":"300.5297","REF_FRAME":"TEME","BSTAR":"-0.00004418800000","GP_ID":"189883202","ELEMENT_SET_NO":"999","SITE":"AFETR","RA_OF_ASC_NODE":"314.5290","PERIAPSIS":"546.048","MEAN_MOTION_DDOT":"0.0000000000000","OBJECT_NAME":"STARLINK-2741","MEAN_ELEMENT_THEORY":"SGP4","TIME_SYSTEM":"UTC","CENTER_NAME":"EARTH","EPOCH":"2021-11-16T06:04:36.043680","OBJECT_TYPE":"PAYLOAD","COUNTRY_CODE":"US","REV_AT_EPOCH":"2689","ARG_OF_PERICENTER":"59.5862","NORAD_CAT_ID":"48684","PERIOD":"95.593","LAUNCH_DATE":"2021-05-26","OBJECT_ID":"2021-044AY","RCS_SIZE":"LARGE","ECCENTRICITY":"0.00017150","DECAY_DATE":null,"MEAN_MOTION":"15.06392697","TLE_LINE1":"1 48684U 21044AY  21320.25319495 -.00000940  00000-0 -44188-4 0  9991","EPHEMERIS_TYPE":"0"},{"MEAN_MOTION_DOT":"-0.00066233","TLE_LINE2":"2 48685  53.0545 298.0372 0002553  44.9874  69.0493 15.06428891  3588","MEAN_ANOMALY":"69.0493","FILE":"3216827","BSTAR":"-0.00446530000000","REF_FRAME":"TEME","CLASSIFICATION_TYPE":"U","APOAPSIS":"548.893","INCLINATION":"53.0545","SEMIMAJOR_AXIS":"6925.260","MEAN_MOTION_DDOT":"0.0000000000000","PERIAPSIS":"545.357","OBJECT_NAME":"STARLINK-2751","GP_ID":"189883554","ELEMENT_SET_NO":"999","SITE":"AFETR","RA_OF_ASC_NODE":"298.0372","TIME_SYSTEM":"UTC","CENTER_NAME":"EARTH","EPOCH":"2021-11-16T14:00:01.000224","MEAN_ELEMENT_THEORY":"SGP4","NORAD_CAT_ID":"48685","PERIOD":"95.590","OBJECT_TYPE":"PAYLOAD","COUNTRY_CODE":"US","REV_AT_EPOCH":"358","ARG_OF_PERICENTER":"44.9874","RCS_SIZE":"LARGE","ECCENTRICITY":"0.00025530","LAUNCH_DATE":"2021-05-26","OBJECT_ID":"2021-044AZ","MEAN_MOTION":"15.06428891","DECAY_DATE":null,"EPHEMERIS_TYPE":"0","TLE_LINE1":"1 48685U 21044AZ  21320.58334491 -.00066233  00000-0 -44653-2 0  9993"},{"BSTAR":"-0.00225750000000","REF_FRAME":"TEME","FILE":"3216827","MEAN_ANOMALY":"207.5585","TLE_LINE2":"2 48686  53.0523 303.0429 0001684  58.9457 207.5585 15.06406929  3580","MEAN_MOTION_DOT":"-0.00033755","SEMIMAJOR_AXIS":"6925.327","INCLINATION":"53.0523","APOAPSIS":"548.359","CLASSIFICATION_TYPE":"U","OBJECT_NAME":"STARLINK-2629","PERIAPSIS":"546.026","MEAN_MOTION_DDOT":"0.0000000000000","RA_OF_ASC_NODE":"303.0429","SITE":"AFETR","ELEMENT_SET_NO":"999","GP_ID":"189882969","EPOCH":"2021-11-16T14:00:01.000224","CENTER_NAME":"EARTH","TIME_SYSTEM":"UTC","MEAN_ELEMENT_THEORY":"SGP4","PERIOD":"95.592","NORAD_CAT_ID":"48686","ARG_OF_PERICENTER":"58.9457","REV_AT_EPOCH":"358","OBJECT_TYPE":"PAYLOAD","COUNTRY_CODE":"US","ECCENTRICITY":"0.00016840","RCS_SIZE":"LARGE","OBJECT_ID":"2021-044BA","LAUNCH_DATE":"2021-05-26","MEAN_MOTION":"15.06406929","DECAY_DATE":null,"EPHEMERIS_TYPE":"0","TLE_LINE1":"1 48686U 21044BA  21320.58334491 -.00033755  00000-0 -22575-2 0  9996"},{"MEAN_MOTION":"15.06418824","DECAY_DATE":null,"EPHEMERIS_TYPE":"0","TLE_LINE1":"1 48687U 21044BB  21320.58334491 -.00034733  00000-0 -23229-2 0  9991","ECCENTRICITY":"0.00024470","RCS_SIZE":"LARGE","OBJECT_ID":"2021-044BB","LAUNCH_DATE":"2021-05-26","EPOCH":"2021-11-16T14:00:01.000224","TIME_SYSTEM":"UTC","CENTER_NAME":"EARTH","MEAN_ELEMENT_THEORY":"SGP4","PERIOD":"95.591","NORAD_CAT_ID":"48687","ARG_OF_PERICENTER":"44.4719","REV_AT_EPOCH":"360","COUNTRY_CODE":"US","OBJECT_TYPE":"PAYLOAD","BSTAR":"-0.00232290000000","REF_FRAME":"TEME","FILE":"3216827","MEAN_ANOMALY":"211.9196","TLE_LINE2":"2 48687  53.0533 293.0416 0002447  44.4719 211.9196 15.06418824  3602","MEAN_MOTION_DOT":"-0.00034733","SEMIMAJOR_AXIS":"6925.291","INCLINATION":"53.0533","APOAPSIS":"548.850","CLASSIFICATION_TYPE":"U","OBJECT_NAME":"STARLINK-2627","MEAN_MOTION_DDOT":"0.0000000000000","PERIAPSIS":"545.461","RA_OF_ASC_NODE":"293.0416","SITE":"AFETR","ELEMENT_SET_NO":"999","GP_ID":"189883092"},{"CLASSIFICATION_TYPE":"U","SEMIMAJOR_AXIS":"6925.277","INCLINATION":"53.0538","APOAPSIS":"548.951","TLE_LINE2":"2 48688  53.0538 293.0412 0002612  48.4111 187.8946 15.06423471  3606","MEAN_MOTION_DOT":"-0.00034177","BSTAR":"-0.00228490000000","REF_FRAME":"TEME","MEAN_ANOMALY":"187.8946","FILE":"3216827","GP_ID":"189882852","ELEMENT_SET_NO":"999","RA_OF_ASC_NODE":"293.0412","SITE":"AFETR","OBJECT_NAME":"STARLINK-2742","MEAN_MOTION_DDOT":"0.0000000000000","PERIAPSIS":"545.333","MEAN_ELEMENT_THEORY":"SGP4","TIME_SYSTEM":"UTC","CENTER_NAME":"EARTH","EPOCH":"2021-11-16T14:00:01.000224","REV_AT_EPOCH":"360","OBJECT_TYPE":"PAYLOAD","COUNTRY_CODE":"US","ARG_OF_PERICENTER":"48.4111","NORAD_CAT_ID":"48688","PERIOD":"95.591","LAUNCH_DATE":"2021-05-26","OBJECT_ID":"2021-044BC","ECCENTRICITY":"0.00026120","RCS_SIZE":"LARGE","DECAY_DATE":null,"MEAN_MOTION":"15.06423471","TLE_LINE1":"1 48688U 21044BC  21320.58334491 -.00034177  00000-0 -22849-2 0  9991","EPHEMERIS_TYPE":"0"}];
